<?xml version="1.0" standalone="yes"?>
<kml><Document><name>حجاج الخارج.group.dwg</name><Style id="s1"><LineStyle><color>FFFF0000</color><width>2</width></LineStyle><IconStyle><scale>0.5</scale><Icon><href>http://maps.google.com/mapfiles/kml/shapes/placemark_circle.png</href></Icon></IconStyle><LabelStyle><scale>0</scale></LabelStyle></Style><Folder><name>Layers</name><Placemark><name>Euro-حجاج_الخارج_عرفات</name><styleUrl>#s1</styleUrl><MultiGeometry><LinearRing><coordinates>39.984471775245,21.3375923319 39.984465074869,21.337592822866 39.984458545757,21.337594413207 39.984452370824,21.337597058485 39.984446715426,21.337600683652 39.984441735154,21.337605195646 39.984437567991,21.337610463565 39.984434324871,21.337616349438 39.984431860536,21.337789506252 39.984589628725,21.338991282205 39.984603438283,21.339083305974 39.984913499397,21.338971902943 39.984924691199,21.33896674923 39.984934836996,21.338959755037 39.984943637331,21.338951129908 39.984950831617,21.33894112833 39.984956207721,21.338930040645 39.984958109189,21.338903165109 39.984956672847,21.338867995776 39.984951069745,21.338833246567 39.984941378388,21.338799410294 39.984886018628,21.338668538666 39.984625639105,21.33806328477 39.984471775245,21.3375923319</coordinates></LinearRing><LinearRing><coordinates>39.98393273421,21.337421688525 39.984371947391,21.33754018511 39.984371450858,21.336625692616 39.984095175843,21.3366103043 39.984006478624,21.337176336127 39.983923919225,21.33740180143 39.98393273421,21.337421688525</coordinates></LinearRing></MultiGeometry></Placemark></Folder></Document></kml>
